[{"OBJECT_NAME":"STARLINK-3671","OBJECT_ID":"2022-025S","EPOCH":"2026-03-09T05:20:16.096128","MEAN_MOTION":15.06419252,"ECCENTRICITY":0.00012793,"INCLINATION":53.0555,"RA_OF_ASC_NODE":32.9827,"ARG_OF_PERICENTER":85.7443,"MEAN_ANOMALY":274.3692,"EPHEMERIS_TYPE":0,"CLASSIFICATION_TYPE":"U","NORAD_CAT_ID":51972,"ELEMENT_SET_NO":999,"REV_AT_EPOCH":22085,"BSTAR":0.0002181368,"MEAN_MOTION_DOT":2.971e-5,"MEAN_MOTION_DDOT":0},{"OBJECT_NAME":"FENGYUN 1C DEB","OBJECT_ID":"1999-025AXU","EPOCH":"2026-03-09T22:45:17.410752","MEAN_MOTION":14.89016033,"ECCENTRICITY":0.0148202,"INCLINATION":97.9241,"RA_OF_ASC_NODE":129.3565,"ARG_OF_PERICENTER":114.5021,"MEAN_ANOMALY":247.1731,"EPHEMERIS_TYPE":0,"CLASSIFICATION_TYPE":"U","NORAD_CAT_ID":30882,"ELEMENT_SET_NO":999,"REV_AT_EPOCH":946,"BSTAR":0.0012177352,"MEAN_MOTION_DOT":0.00014041,"MEAN_MOTION_DDOT":0}]
